[{"OBJECT_NAME":"STARLINK-34007","OBJECT_ID":"2025-094E","EPOCH":"2026-03-09T20:31:26.186880","MEAN_MOTION":14.98405216,"ECCENTRICITY":0.00045816,"INCLINATION":70.0017,"RA_OF_ASC_NODE":234.2102,"ARG_OF_PERICENTER":277.8261,"MEAN_ANOMALY":82.2378,"EPHEMERIS_TYPE":0,"CLASSIFICATION_TYPE":"U","NORAD_CAT_ID":63868,"ELEMENT_SET_NO":999,"REV_AT_EPOCH":4722,"BSTAR":-0.00099610286,"MEAN_MOTION_DOT":-0.00011983,"MEAN_MOTION_DDOT":0},{"OBJECT_NAME":"UNKNOWN","OBJECT_ID":"","EPOCH":"2026-03-08T12:59:39.172704","MEAN_MOTION":15.0131728,"ECCENTRICITY":0.00204305,"INCLINATION":86.3534,"RA_OF_ASC_NODE":358.469,"ARG_OF_PERICENTER":121.5673,"MEAN_ANOMALY":238.7558,"EPHEMERIS_TYPE":0,"CLASSIFICATION_TYPE":"U","NORAD_CAT_ID":270086,"ELEMENT_SET_NO":999,"REV_AT_EPOCH":9441,"BSTAR":0.0053525659,"MEAN_MOTION_DOT":0.00069778,"MEAN_MOTION_DDOT":0}]
